{
    "links": {
        "self": "http://www.neowsapp.com/rest/v1/neo/3745639?api_key=iIulBulltgU6a56xZRHN4H3l9WmuAYTsLGpBGhQ2"
    },
    "id": "3745639",
    "neo_reference_id": "3745639",
    "name": "(2016 ES28)",
    "designation": "2016 ES28",
    "nasa_jpl_url": "http://ssd.jpl.nasa.gov/sbdb.cgi?sstr=3745639",
    "absolute_magnitude_h": 22.5,
    "estimated_diameter": {
        "kilometers": {
            "estimated_diameter_min": 0.0840533402,
            "estimated_diameter_max": 0.1879489824
        },
        "meters": {
            "estimated_diameter_min": 84.0533402073,
            "estimated_diameter_max": 187.9489824394
        },
        "miles": {
            "estimated_diameter_min": 0.0522283081,
            "estimated_diameter_max": 0.1167860472
        },
        "feet": {
            "estimated_diameter_min": 275.7655606856,
            "estimated_diameter_max": 616.6305395464
        }
    },
    "is_potentially_hazardous_asteroid": false,
    "close_approach_data": [
        {
            "close_approach_date": "2016-02-24",
            "close_approach_date_full": "2016-Feb-24 11:44",
            "epoch_date_close_approach": 1456314240000,
            "relative_velocity": {
                "kilometers_per_second": "19.4387231146",
                "kilometers_per_hour": "69979.4032126817",
                "miles_per_hour": "43482.4797351243"
            },
            "miss_distance": {
                "astronomical": "0.2177455083",
                "lunar": "84.7030027287",
                "kilometers": "32574264.243747321",
                "miles": "20240709.2269061898"
            },
            "orbiting_body": "Earth"
        }
    ],
    "orbital_data": {
        "orbit_id": "8",
        "orbit_determination_date": "2017-04-06 08:27:44",
        "first_observation_date": "2016-03-03",
        "last_observation_date": "2016-03-15",
        "data_arc_in_days": 12,
        "observations_used": 27,
        "orbit_uncertainty": "9",
        "minimum_orbit_intersection": ".145144",
        "jupiter_tisserand_invariant": "4.264",
        "epoch_osculation": "2457456.5",
        "eccentricity": ".6580969194819418",
        "semi_major_axis": "1.470989109072791",
        "inclination": "24.87226646333243",
        "ascending_node_longitude": "176.2673752138909",
        "orbital_period": "651.6473189972259",
        "perihelion_distance": ".5029357078005011",
        "perihelion_argument": "233.823901600428",
        "aphelion_distance": "2.439042510345081",
        "perihelion_time": "2457383.450657375132",
        "mean_anomaly": "40.35582220367338",
        "mean_motion": ".5524460693768811",
        "equinox": "J2000",
        "orbit_class": {
            "orbit_class_type": "APO",
            "orbit_class_description": "Near-Earth asteroid orbits which cross the Earth’s orbit similar to that of 1862 Apollo",
            "orbit_class_range": "a (semi-major axis) > 1.0 AU; q (perihelion) < 1.017 AU"
        }
    },
    "is_sentry_object": false
}